start=new Date('2021-12-01T00:00:00.000Z').valueOf();
sats=[{"OBJECT_ID":"2021-005AV","CLASSIFICATION_TYPE":"U","MEAN_MOTION_DDOT":"0.0000000000000","TLE_LINE2":"2 47392  53.0546 193.7336 0002170  81.4205 278.7030 15.06398412 48369","SEMIMAJOR_AXIS":"6925.353","RA_OF_ASC_NODE":"193.7336","APOAPSIS":"548.721","LAUNCH_DATE":"2021-01-20","REV_AT_EPOCH":"4836","MEAN_ELEMENT_THEORY":"SGP4","PERIAPSIS":"545.716","TLE_LINE1":"1 47392U 21005AV  21334.90896593  .00001146  00000-0  95873-4 0  9993","NORAD_CAT_ID":"47392","ARG_OF_PERICENTER":"81.4205","EPHEMERIS_TYPE":"0","OBJECT_NAME":"STARLINK-2113","EPOCH":"2021-11-30T21:48:54.656352","MEAN_ANOMALY":"278.7030","PERIOD":"95.592","INCLINATION":"53.0546","GP_ID":"190816244","BSTAR":"0.00009587300000","SITE":"AFETR","FILE":"3228256","TIME_SYSTEM":"UTC","DECAY_DATE":null,"COUNTRY_CODE":"US","CENTER_NAME":"EARTH","REF_FRAME":"TEME","RCS_SIZE":"LARGE","OBJECT_TYPE":"PAYLOAD","ECCENTRICITY":"0.00021700","ELEMENT_SET_NO":"999","MEAN_MOTION_DOT":"0.00001146","MEAN_MOTION":"15.06398412"},{"ECCENTRICITY":"0.00017810","TIME_SYSTEM":"UTC","FILE":"3228256","RCS_SIZE":"LARGE","OBJECT_TYPE":"PAYLOAD","REF_FRAME":"TEME","DECAY_DATE":null,"CENTER_NAME":"EARTH","COUNTRY_CODE":"US","MEAN_MOTION":"15.06401062","ELEMENT_SET_NO":"999","MEAN_MOTION_DOT":"0.00001091","LAUNCH_DATE":"2021-01-20","APOAPSIS":"548.444","SEMIMAJOR_AXIS":"6925.345","RA_OF_ASC_NODE":"169.0812","MEAN_MOTION_DDOT":"0.0000000000000","TLE_LINE2":"2 47393  53.0502 169.0812 0001781  89.5018 270.6175 15.06401062 48700","CLASSIFICATION_TYPE":"U","OBJECT_ID":"2021-005AW","PERIOD":"95.592","MEAN_ANOMALY":"270.6175","EPOCH":"2021-11-30T20:02:04.780320","OBJECT_NAME":"STARLINK-2114","GP_ID":"190817495","SITE":"AFETR","BSTAR":"0.00009214800000","INCLINATION":"53.0502","PERIAPSIS":"545.977","MEAN_ELEMENT_THEORY":"SGP4","REV_AT_EPOCH":"4870","ARG_OF_PERICENTER":"89.5018","EPHEMERIS_TYPE":"0","NORAD_CAT_ID":"47393","TLE_LINE1":"1 47393U 21005AW  21334.83477755  .00001091  00000-0  92148-4 0  9992"},{"MEAN_MOTION_DOT":"0.00000721","ELEMENT_SET_NO":"999","MEAN_MOTION":"15.06396697","RCS_SIZE":"LARGE","OBJECT_TYPE":"PAYLOAD","REF_FRAME":"TEME","CENTER_NAME":"EARTH","DECAY_DATE":null,"COUNTRY_CODE":"US","TIME_SYSTEM":"UTC","FILE":"3227572","ECCENTRICITY":"0.00019540","EPHEMERIS_TYPE":"0","ARG_OF_PERICENTER":"75.9277","NORAD_CAT_ID":"47394","TLE_LINE1":"1 47394U 21005AX  21334.32057803  .00000721  00000-0  67307-4 0  9993","PERIAPSIS":"545.870","MEAN_ELEMENT_THEORY":"SGP4","REV_AT_EPOCH":"4835","GP_ID":"190785021","SITE":"AFETR","BSTAR":"0.00006730700000","INCLINATION":"53.0523","PERIOD":"95.592","MEAN_ANOMALY":"284.1929","EPOCH":"2021-11-30T07:41:37.941792","OBJECT_NAME":"STARLINK-2115","CLASSIFICATION_TYPE":"U","OBJECT_ID":"2021-005AX","APOAPSIS":"548.577","LAUNCH_DATE":"2021-01-20","SEMIMAJOR_AXIS":"6925.359","RA_OF_ASC_NODE":"191.3923","MEAN_MOTION_DDOT":"0.0000000000000","TLE_LINE2":"2 47394  53.0523 191.3923 0001954  75.9277 284.1929 15.06396697 48358"},{"MEAN_ANOMALY":"286.3254","PERIOD":"95.592","OBJECT_NAME":"STARLINK-2117","EPOCH":"2021-11-30T21:18:23.757408","GP_ID":"190816494","SITE":"AFETR","BSTAR":"0.00012194000000","INCLINATION":"53.0530","MEAN_ELEMENT_THEORY":"SGP4","PERIAPSIS":"545.762","REV_AT_EPOCH":"4850","ARG_OF_PERICENTER":"73.7968","EPHEMERIS_TYPE":"0","TLE_LINE1":"1 47395U 21005AY  21334.88777497  .00001535  00000-0  12194-3 0  9990","NORAD_CAT_ID":"47395","RA_OF_ASC_NODE":"183.8375","SEMIMAJOR_AXIS":"6925.362","APOAPSIS":"548.693","LAUNCH_DATE":"2021-01-20","TLE_LINE2":"2 47395  53.0530 183.8375 0002116  73.7968 286.3254 15.06395476 48504","MEAN_MOTION_DDOT":"0.0000000000000","CLASSIFICATION_TYPE":"U","OBJECT_ID":"2021-005AY","MEAN_MOTION":"15.06395476","ELEMENT_SET_NO":"999","MEAN_MOTION_DOT":"0.00001535","ECCENTRICITY":"0.00021160","FILE":"3228256","TIME_SYSTEM":"UTC","CENTER_NAME":"EARTH","DECAY_DATE":null,"COUNTRY_CODE":"US","RCS_SIZE":"LARGE","OBJECT_TYPE":"PAYLOAD","REF_FRAME":"TEME"},{"FILE":"3228256","TIME_SYSTEM":"UTC","DECAY_DATE":null,"COUNTRY_CODE":"US","CENTER_NAME":"EARTH","REF_FRAME":"TEME","RCS_SIZE":"LARGE","OBJECT_TYPE":"PAYLOAD","ECCENTRICITY":"0.00020660","ELEMENT_SET_NO":"999","MEAN_MOTION_DOT":"-0.00000177","MEAN_MOTION":"15.06394637","OBJECT_ID":"2021-005AZ","CLASSIFICATION_TYPE":"U","MEAN_MOTION_DDOT":"0.0000000000000","TLE_LINE2":"2 47396  53.0550 193.9466 0002066  82.9690 277.1534 15.06394637 48369","SEMIMAJOR_AXIS":"6925.365","RA_OF_ASC_NODE":"193.9466","LAUNCH_DATE":"2021-01-20","APOAPSIS":"548.661","REV_AT_EPOCH":"4836","MEAN_ELEMENT_THEORY":"SGP4","PERIAPSIS":"545.799","TLE_LINE1":"1 47396U 21005AZ  21334.86474259 -.00000177  00000-0  70120-5 0  9996","NORAD_CAT_ID":"47396","EPHEMERIS_TYPE":"0","ARG_OF_PERICENTER":"82.9690","OBJECT_NAME":"STARLINK-2118","EPOCH":"2021-11-30T20:45:13.759776","MEAN_ANOMALY":"277.1534","PERIOD":"95.592","INCLINATION":"53.0550","GP_ID":"190816744","SITE":"AFETR","BSTAR":"0.00000701200000"},{"INCLINATION":"53.0534","GP_ID":"190816996","SITE":"AFETR","BSTAR":"0.00000868390000","EPOCH":"2021-11-30T17:30:09.683136","OBJECT_NAME":"STARLINK-2119","PERIOD":"95.593","MEAN_ANOMALY":"293.1020","NORAD_CAT_ID":"47397","TLE_LINE1":"1 47397U 21005BA  21334.72927874 -.00000152  00000-0  86839-5 0  9995","ARG_OF_PERICENTER":"67.0189","EPHEMERIS_TYPE":"0","REV_AT_EPOCH":"4792","PERIAPSIS":"545.808","MEAN_ELEMENT_THEORY":"SGP4","TLE_LINE2":"2 47397  53.0534 224.5617 0002085  67.0189 293.1020 15.06387514 47924","MEAN_MOTION_DDOT":"0.0000000000000","LAUNCH_DATE":"2021-01-20","APOAPSIS":"548.696","SEMIMAJOR_AXIS":"6925.387","RA_OF_ASC_NODE":"224.5617","OBJECT_ID":"2021-005BA","CLASSIFICATION_TYPE":"U","MEAN_MOTION":"15.06387514","MEAN_MOTION_DOT":"-0.00000152","ELEMENT_SET_NO":"999","ECCENTRICITY":"0.00020850","REF_FRAME":"TEME","RCS_SIZE":"LARGE","OBJECT_TYPE":"PAYLOAD","CENTER_NAME":"EARTH","DECAY_DATE":null,"COUNTRY_CODE":"US","TIME_SYSTEM":"UTC","FILE":"3228256"},{"TLE_LINE1":"1 47398U 21005BB  21334.90159572  .00000721  00000-0  67297-4 0  9995","NORAD_CAT_ID":"47398","ARG_OF_PERICENTER":"75.0515","EPHEMERIS_TYPE":"0","REV_AT_EPOCH":"4836","MEAN_ELEMENT_THEORY":"SGP4","PERIAPSIS":"545.495","INCLINATION":"53.0522","BSTAR":"0.00006729700000","GP_ID":"190817247","SITE":"AFETR","OBJECT_NAME":"STARLINK-2120","EPOCH":"2021-11-30T21:38:17.870208","MEAN_ANOMALY":"285.0750","PERIOD":"95.592","OBJECT_ID":"2021-005BB","CLASSIFICATION_TYPE":"U","TLE_LINE2":"2 47398  53.0522 193.7781 0002496  75.0515 285.0750 15.06396578 48368","MEAN_MOTION_DDOT":"0.0000000000000","SEMIMAJOR_AXIS":"6925.359","RA_OF_ASC_NODE":"193.7781","APOAPSIS":"548.953","LAUNCH_DATE":"2021-01-20","MEAN_MOTION_DOT":"0.00000721","ELEMENT_SET_NO":"999","MEAN_MOTION":"15.06396578","COUNTRY_CODE":"US","DECAY_DATE":null,"CENTER_NAME":"EARTH","OBJECT_TYPE":"PAYLOAD","RCS_SIZE":"LARGE","REF_FRAME":"TEME","FILE":"3228256","TIME_SYSTEM":"UTC","ECCENTRICITY":"0.00024960"},{"ELEMENT_SET_NO":"999","MEAN_MOTION_DOT":"0.00001437","MEAN_MOTION":"15.06397323","FILE":"3228256","TIME_SYSTEM":"UTC","CENTER_NAME":"EARTH","DECAY_DATE":null,"COUNTRY_CODE":"US","OBJECT_TYPE":"PAYLOAD","RCS_SIZE":"LARGE","REF_FRAME":"TEME","ECCENTRICITY":"0.00022470","MEAN_ELEMENT_THEORY":"SGP4","PERIAPSIS":"545.666","REV_AT_EPOCH":"4822","EPHEMERIS_TYPE":"0","ARG_OF_PERICENTER":"75.1583","TLE_LINE1":"1 47399U 21005BC  21334.91447484  .00001437  00000-0  11536-3 0  9998","NORAD_CAT_ID":"47399","MEAN_ANOMALY":"284.9655","PERIOD":"95.592","OBJECT_NAME":"STARLINK-2121","EPOCH":"2021-11-30T21:56:50.626176","BSTAR":"0.00011536000000","GP_ID":"190815995","SITE":"AFETR","INCLINATION":"53.0551","CLASSIFICATION_TYPE":"U","OBJECT_ID":"2021-005BC","SEMIMAJOR_AXIS":"6925.357","RA_OF_ASC_NODE":"203.7173","LAUNCH_DATE":"2021-01-20","APOAPSIS":"548.778","TLE_LINE2":"2 47399  53.0551 203.7173 0002247  75.1583 284.9655 15.06397323 48224","MEAN_MOTION_DDOT":"0.0000000000000"},{"PERIOD":"95.592","MEAN_ANOMALY":"276.7618","EPOCH":"2021-11-30T00:50:57.033312","OBJECT_NAME":"STARLINK-2122","BSTAR":"-0.00001425700000","GP_ID":"190784025","SITE":"AFETR","INCLINATION":"53.0537","PERIAPSIS":"545.898","MEAN_ELEMENT_THEORY":"SGP4","REV_AT_EPOCH":"4837","EPHEMERIS_TYPE":"0","ARG_OF_PERICENTER":"83.3589","NORAD_CAT_ID":"47400","TLE_LINE1":"1 47400U 21005BD  21334.03538233 -.00000494  00000-0 -14257-4 0  9995","APOAPSIS":"548.552","LAUNCH_DATE":"2021-01-20","SEMIMAJOR_AXIS":"6925.360","RA_OF_ASC_NODE":"187.6578","MEAN_MOTION_DDOT":"0.0000000000000","TLE_LINE2":"2 47400  53.0537 187.6578 0001916  83.3589 276.7618 15.06396298 48373","CLASSIFICATION_TYPE":"U","OBJECT_ID":"2021-005BD","MEAN_MOTION":"15.06396298","ELEMENT_SET_NO":"999","MEAN_MOTION_DOT":"-0.00000494","ECCENTRICITY":"0.00019160","TIME_SYSTEM":"UTC","FILE":"3227572","RCS_SIZE":"LARGE","REF_FRAME":"TEME","OBJECT_TYPE":"PAYLOAD","CENTER_NAME":"EARTH","DECAY_DATE":null,"COUNTRY_CODE":"US"},{"ECCENTRICITY":"0.00021240","TIME_SYSTEM":"UTC","FILE":"3228256","RCS_SIZE":"LARGE","OBJECT_TYPE":"PAYLOAD","REF_FRAME":"TEME","DECAY_DATE":null,"COUNTRY_CODE":"US","CENTER_NAME":"EARTH","MEAN_MOTION":"15.06392232","ELEMENT_SET_NO":"999","MEAN_MOTION_DOT":"-0.00000368","LAUNCH_DATE":"2021-01-20","APOAPSIS":"548.708","RA_OF_ASC_NODE":"193.7195","SEMIMAJOR_AXIS":"6925.372","MEAN_MOTION_DDOT":"0.0000000000000","TLE_LINE2":"2 47401  53.0541 193.7195 0002124  70.1765 289.9453 15.06392232 48371","CLASSIFICATION_TYPE":"U","OBJECT_ID":"2021-005BE","PERIOD":"95.593","MEAN_ANOMALY":"289.9453","EPOCH":"2021-11-30T21:59:32.158752","OBJECT_NAME":"STARLINK-2123","SITE":"AFETR","GP_ID":"190817496","BSTAR":"-0.00000580620000","INCLINATION":"53.0541","PERIAPSIS":"545.766","MEAN_ELEMENT_THEORY":"SGP4","REV_AT_EPOCH":"4837","ARG_OF_PERICENTER":"70.1765","EPHEMERIS_TYPE":"0","NORAD_CAT_ID":"47401","TLE_LINE1":"1 47401U 21005BE  21334.91634443 -.00000368  00000-0 -58062-5 0  9996"}];
